UNKNOWN                 
1 85027U          26071.89259102  .00000233  00000+0  29730-3 0  9995
2 85027  66.0396 240.7389 0169986 142.0986 219.2189 13.74287297617002
UNKNOWN                 
1 85047U          26072.42299749  .00011169  00000+0  17883-1 0  9992
2 85047 102.1683  61.8985 0109082 173.2396 187.0228 13.46773287588855
UNKNOWN                 
1 85061U          26070.94265869  .00003909  00000+0  15397-1 0  9990
2 85061 102.4016  67.9371 0271801  16.4013  40.7965 12.77710823567178
UNKNOWN                 
1 85100U          26070.32357905  .00000456  00000+0  15070-3 0  9993
2 85100  74.0443  59.0034 0013892 265.4410 160.4876 14.40797406646105
UNKNOWN                 
1 85106U          26071.25613105  .00000694  00000+0  80354-3 0  9990
2 85106 100.0524 181.5178 0010829 144.3951 244.8262 13.73035738615350
UNKNOWN                 
1 85151U          26072.44391792  .00021594  00000+0  26353-2 0  9997
2 85151  98.3999 305.7892 0006463 209.3228 150.7622 14.83322650492954
UNKNOWN                 
1 85210U          26071.23233994  .00000327  00000+0  34895-3 0  9990
2 85210  99.8618 219.6907 0216482  85.7625  34.8749 13.71673445614422
UNKNOWN                 
1 85217U          26072.21567035  .00003255  00000+0  85820-3 0  9999
2 85217  98.0222 165.7010 0206616 214.4925 144.2712 14.37674558640850
UNKNOWN                 
1 85237U          26054.35491965  .00013478  00000+0  26977-2 0  9999
2 85237  65.5338  24.2147 0516167 354.4749   5.0755 14.01835433618525
UNKNOWN                 
1 85238U          26072.29482117  .00000047  00000+0  74460-4 0  9992
2 85238  99.0685   3.9176 0062725 316.5851 197.7184 13.88361650623405
UNKNOWN                 
1 85246U          26071.78157377  .00002610  00000+0  93364-3 0  9992
2 85246  97.9912  71.8553 0223392  38.6478 323.0453 14.21805517635862
UNKNOWN                 
1 85373U          26072.37260712  .00002439  00000+0  16634-2 0  9990
2 85373 100.4236 126.0190 0050110   0.6926  61.1480 14.00450798624812
