CCSDS_OMM_VERS = 2.0
CREATION_DATE  = 
ORIGINATOR     = 

OBJECT_NAME    = UNKNOWN
OBJECT_ID      = 
CENTER_NAME    = EARTH
REF_FRAME      = TEME
TIME_SYSTEM    = UTC
MEAN_ELEMENT_THEORY = SGP/SGP4

EPOCH          = 2026-03-12T21:25:19.864128
MEAN_MOTION    = 13.74287297
ECCENTRICITY   = .0169986
INCLINATION    = 66.0396
RA_OF_ASC_NODE = 240.7389
ARG_OF_PERICENTER = 142.0986
MEAN_ANOMALY   = 219.2189

EPHEMERIS_TYPE = 0
CLASSIFICATION_TYPE = U
NORAD_CAT_ID   = 85027
ELEMENT_SET_NO = 999
REV_AT_EPOCH   = 61700
BSTAR          = .2973E-3
MEAN_MOTION_DOT = .233E-5
MEAN_MOTION_DDOT = 0

CCSDS_OMM_VERS = 2.0
CREATION_DATE  = 
ORIGINATOR     = 

OBJECT_NAME    = UNKNOWN
OBJECT_ID      = 
CENTER_NAME    = EARTH
REF_FRAME      = TEME
TIME_SYSTEM    = UTC
MEAN_ELEMENT_THEORY = SGP/SGP4

EPOCH          = 2026-03-13T10:09:06.983136
MEAN_MOTION    = 13.46773287
ECCENTRICITY   = .0109082
INCLINATION    = 102.1683
RA_OF_ASC_NODE = 61.8985
ARG_OF_PERICENTER = 173.2396
MEAN_ANOMALY   = 187.0228

EPHEMERIS_TYPE = 0
CLASSIFICATION_TYPE = U
NORAD_CAT_ID   = 85047
ELEMENT_SET_NO = 999
REV_AT_EPOCH   = 58885
BSTAR          = .17883E-1
MEAN_MOTION_DOT = .11169E-3
MEAN_MOTION_DDOT = 0

CCSDS_OMM_VERS = 2.0
CREATION_DATE  = 
ORIGINATOR     = 

OBJECT_NAME    = UNKNOWN
OBJECT_ID      = 
CENTER_NAME    = EARTH
REF_FRAME      = TEME
TIME_SYSTEM    = UTC
MEAN_ELEMENT_THEORY = SGP/SGP4

EPOCH          = 2026-03-11T22:37:25.710816
MEAN_MOTION    = 12.77710823
ECCENTRICITY   = .0271801
INCLINATION    = 102.4016
RA_OF_ASC_NODE = 67.9371
ARG_OF_PERICENTER = 16.4013
MEAN_ANOMALY   = 40.7965

EPHEMERIS_TYPE = 0
CLASSIFICATION_TYPE = U
NORAD_CAT_ID   = 85061
ELEMENT_SET_NO = 999
REV_AT_EPOCH   = 56717
BSTAR          = .15397E-1
MEAN_MOTION_DOT = .3909E-4
MEAN_MOTION_DDOT = 0

CCSDS_OMM_VERS = 2.0
CREATION_DATE  = 
ORIGINATOR     = 

OBJECT_NAME    = UNKNOWN
OBJECT_ID      = 
CENTER_NAME    = EARTH
REF_FRAME      = TEME
TIME_SYSTEM    = UTC
MEAN_ELEMENT_THEORY = SGP/SGP4

EPOCH          = 2026-03-11T07:45:57.229920
MEAN_MOTION    = 14.40797406
ECCENTRICITY   = .0013892
INCLINATION    = 74.0443
RA_OF_ASC_NODE = 59.0034
ARG_OF_PERICENTER = 265.4410
MEAN_ANOMALY   = 160.4876

EPHEMERIS_TYPE = 0
CLASSIFICATION_TYPE = U
NORAD_CAT_ID   = 85100
ELEMENT_SET_NO = 999
REV_AT_EPOCH   = 64610
BSTAR          = .1507E-3
MEAN_MOTION_DOT = .456E-5
MEAN_MOTION_DDOT = 0

CCSDS_OMM_VERS = 2.0
CREATION_DATE  = 
ORIGINATOR     = 

OBJECT_NAME    = UNKNOWN
OBJECT_ID      = 
CENTER_NAME    = EARTH
REF_FRAME      = TEME
TIME_SYSTEM    = UTC
MEAN_ELEMENT_THEORY = SGP/SGP4

EPOCH          = 2026-03-12T06:08:49.722720
MEAN_MOTION    = 13.73035738
ECCENTRICITY   = .0010829
INCLINATION    = 100.0524
RA_OF_ASC_NODE = 181.5178
ARG_OF_PERICENTER = 144.3951
MEAN_ANOMALY   = 244.8262

EPHEMERIS_TYPE = 0
CLASSIFICATION_TYPE = U
NORAD_CAT_ID   = 85106
ELEMENT_SET_NO = 999
REV_AT_EPOCH   = 61535
BSTAR          = .80354E-3
MEAN_MOTION_DOT = .694E-5
MEAN_MOTION_DDOT = 0

CCSDS_OMM_VERS = 2.0
CREATION_DATE  = 
ORIGINATOR     = 

OBJECT_NAME    = UNKNOWN
OBJECT_ID      = 
CENTER_NAME    = EARTH
REF_FRAME      = TEME
TIME_SYSTEM    = UTC
MEAN_ELEMENT_THEORY = SGP/SGP4

EPOCH          = 2026-03-13T10:39:14.508288
MEAN_MOTION    = 14.83322650
ECCENTRICITY   = .0006463
INCLINATION    = 98.3999
RA_OF_ASC_NODE = 305.7892
ARG_OF_PERICENTER = 209.3228
MEAN_ANOMALY   = 150.7622

EPHEMERIS_TYPE = 0
CLASSIFICATION_TYPE = U
NORAD_CAT_ID   = 85151
ELEMENT_SET_NO = 999
REV_AT_EPOCH   = 49295
BSTAR          = .26353E-2
MEAN_MOTION_DOT = .21594E-3
MEAN_MOTION_DDOT = 0

CCSDS_OMM_VERS = 2.0
CREATION_DATE  = 
ORIGINATOR     = 

OBJECT_NAME    = UNKNOWN
OBJECT_ID      = 
CENTER_NAME    = EARTH
REF_FRAME      = TEME
TIME_SYSTEM    = UTC
MEAN_ELEMENT_THEORY = SGP/SGP4

EPOCH          = 2026-03-12T05:34:34.170816
MEAN_MOTION    = 13.71673445
ECCENTRICITY   = .0216482
INCLINATION    = 99.8618
RA_OF_ASC_NODE = 219.6907
ARG_OF_PERICENTER = 85.7625
MEAN_ANOMALY   = 34.8749

EPHEMERIS_TYPE = 0
CLASSIFICATION_TYPE = U
NORAD_CAT_ID   = 85210
ELEMENT_SET_NO = 999
REV_AT_EPOCH   = 61442
BSTAR          = .34895E-3
MEAN_MOTION_DOT = .327E-5
MEAN_MOTION_DDOT = 0

CCSDS_OMM_VERS = 2.0
CREATION_DATE  = 
ORIGINATOR     = 

OBJECT_NAME    = UNKNOWN
OBJECT_ID      = 
CENTER_NAME    = EARTH
REF_FRAME      = TEME
TIME_SYSTEM    = UTC
MEAN_ELEMENT_THEORY = SGP/SGP4

EPOCH          = 2026-03-13T05:10:33.918240
MEAN_MOTION    = 14.37674558
ECCENTRICITY   = .0206616
INCLINATION    = 98.0222
RA_OF_ASC_NODE = 165.7010
ARG_OF_PERICENTER = 214.4925
MEAN_ANOMALY   = 144.2712

EPHEMERIS_TYPE = 0
CLASSIFICATION_TYPE = U
NORAD_CAT_ID   = 85217
ELEMENT_SET_NO = 999
REV_AT_EPOCH   = 64085
BSTAR          = .8582E-3
MEAN_MOTION_DOT = .3255E-4
MEAN_MOTION_DDOT = 0

CCSDS_OMM_VERS = 2.0
CREATION_DATE  = 
ORIGINATOR     = 

OBJECT_NAME    = UNKNOWN
OBJECT_ID      = 
CENTER_NAME    = EARTH
REF_FRAME      = TEME
TIME_SYSTEM    = UTC
MEAN_ELEMENT_THEORY = SGP/SGP4

EPOCH          = 2026-02-23T08:31:05.057760
MEAN_MOTION    = 14.01835433
ECCENTRICITY   = .0516167
INCLINATION    = 65.5338
RA_OF_ASC_NODE = 24.2147
ARG_OF_PERICENTER = 354.4749
MEAN_ANOMALY   = 5.0755

EPHEMERIS_TYPE = 0
CLASSIFICATION_TYPE = U
NORAD_CAT_ID   = 85237
ELEMENT_SET_NO = 999
REV_AT_EPOCH   = 61852
BSTAR          = .26977E-2
MEAN_MOTION_DOT = .13478E-3
MEAN_MOTION_DDOT = 0

CCSDS_OMM_VERS = 2.0
CREATION_DATE  = 
ORIGINATOR     = 

OBJECT_NAME    = UNKNOWN
OBJECT_ID      = 
CENTER_NAME    = EARTH
REF_FRAME      = TEME
TIME_SYSTEM    = UTC
MEAN_ELEMENT_THEORY = SGP/SGP4

EPOCH          = 2026-03-13T07:04:32.549088
MEAN_MOTION    = 13.88361650
ECCENTRICITY   = .0062725
INCLINATION    = 99.0685
RA_OF_ASC_NODE = 3.9176
ARG_OF_PERICENTER = 316.5851
MEAN_ANOMALY   = 197.7184

EPHEMERIS_TYPE = 0
CLASSIFICATION_TYPE = U
NORAD_CAT_ID   = 85238
ELEMENT_SET_NO = 999
REV_AT_EPOCH   = 62340
BSTAR          = .7446E-4
MEAN_MOTION_DOT = .47E-6
MEAN_MOTION_DDOT = 0

CCSDS_OMM_VERS = 2.0
CREATION_DATE  = 
ORIGINATOR     = 

OBJECT_NAME    = UNKNOWN
OBJECT_ID      = 
CENTER_NAME    = EARTH
REF_FRAME      = TEME
TIME_SYSTEM    = UTC
MEAN_ELEMENT_THEORY = SGP/SGP4

EPOCH          = 2026-03-12T18:45:27.973728
MEAN_MOTION    = 14.21805517
ECCENTRICITY   = .0223392
INCLINATION    = 97.9912
RA_OF_ASC_NODE = 71.8553
ARG_OF_PERICENTER = 38.6478
MEAN_ANOMALY   = 323.0453

EPHEMERIS_TYPE = 0
CLASSIFICATION_TYPE = U
NORAD_CAT_ID   = 85246
ELEMENT_SET_NO = 999
REV_AT_EPOCH   = 63586
BSTAR          = .93364E-3
MEAN_MOTION_DOT = .261E-4
MEAN_MOTION_DDOT = 0

CCSDS_OMM_VERS = 2.0
CREATION_DATE  = 
ORIGINATOR     = 

OBJECT_NAME    = UNKNOWN
OBJECT_ID      = 
CENTER_NAME    = EARTH
REF_FRAME      = TEME
TIME_SYSTEM    = UTC
MEAN_ELEMENT_THEORY = SGP/SGP4

EPOCH          = 2026-03-13T08:56:33.255168
MEAN_MOTION    = 14.00450798
ECCENTRICITY   = .005011
INCLINATION    = 100.4236
RA_OF_ASC_NODE = 126.0190
ARG_OF_PERICENTER = 0.6926
MEAN_ANOMALY   = 61.1480

EPHEMERIS_TYPE = 0
CLASSIFICATION_TYPE = U
NORAD_CAT_ID   = 85373
ELEMENT_SET_NO = 999
REV_AT_EPOCH   = 62481
BSTAR          = .16634E-2
MEAN_MOTION_DOT = .2439E-4
MEAN_MOTION_DDOT = 0

